{
 "type": "FeatureCollection",
 "features": [
  {
   "type": "Feature",
   "properties": {
    "name": "Wythall",
    "type": "Civil parish",
    "gss_code": "E04010276",
    "ons_code": "47UB014",
    "district": "Bromsgrove",
    "county": "Worcestershire",
    "note": "Simplified boundary for display. Full-resolution version available from the ONS Open Geography Portal.",
    "attribution": "Contains National Statistics and OS data (c) Crown copyright and database right 2026"
   },
   "geometry": {
    "type": "Polygon",
    "coordinates": [
     [
      [
       -1.910812,
       52.406691
      ],
      [
       -1.909432,
       52.404386
      ],
      [
       -1.901518,
       52.403769
      ],
      [
       -1.895232,
       52.403506
      ],
      [
       -1.891452,
       52.404387
      ],
      [
       -1.885939,
       52.404688
      ],
      [
       -1.882698,
       52.399813
      ],
      [
       -1.878317,
       52.400468
      ],
      [
       -1.877866,
       52.402429
      ],
      [
       -1.875228,
       52.40229
      ],
      [
       -1.872978,
       52.402181
      ],
      [
       -1.872343,
       52.403211
      ],
      [
       -1.872339,
       52.404366
      ],
      [
       -1.868767,
       52.404712
      ],
      [
       -1.866281,
       52.404556
      ],
      [
       -1.864857,
       52.40467
      ],
      [
       -1.862391,
       52.403822
      ],
      [
       -1.856008,
       52.402219
      ],
      [
       -1.850874,
       52.401513
      ],
      [
       -1.849411,
       52.401423
      ],
      [
       -1.847465,
       52.400932
      ],
      [
       -1.846388,
       52.397531
      ],
      [
       -1.847251,
       52.396021
      ],
      [
       -1.847657,
       52.39545
      ],
      [
       -1.848402,
       52.39458
      ],
      [
       -1.84991,
       52.393236
      ],
      [
       -1.851654,
       52.391984
      ],
      [
       -1.853461,
       52.390695
      ],
      [
       -1.855218,
       52.389304
      ],
      [
       -1.856881,
       52.388321
      ],
      [
       -1.858524,
       52.386093
      ],
      [
       -1.860112,
       52.384603
      ],
      [
       -1.86104,
       52.38391
      ],
      [
       -1.861786,
       52.381205
      ],
      [
       -1.861309,
       52.380119
      ],
      [
       -1.862224,
       52.378261
      ],
      [
       -1.862904,
       52.377672
      ],
      [
       -1.863169,
       52.377322
      ],
      [
       -1.863068,
       52.37703
      ],
      [
       -1.863199,
       52.376768
      ],
      [
       -1.863384,
       52.376509
      ],
      [
       -1.863391,
       52.376329
      ],
      [
       -1.863598,
       52.375894
      ],
      [
       -1.864038,
       52.375507
      ],
      [
       -1.864344,
       52.375172
      ],
      [
       -1.864815,
       52.374638
      ],
      [
       -1.865026,
       52.374519
      ],
      [
       -1.865191,
       52.374003
      ],
      [
       -1.865292,
       52.373674
      ],
      [
       -1.910812,
       52.406691
      ]
     ]
    ]
   }
  }
 ]
}